{
  "norad_id": 54146,
  "name": "ONEWEB-0531",
  "history": [
    {
      "epoch": "2026-03-28T20:30:32.638752Z",
      "apogee_km": 1182.9232232329387,
      "perigee_km": 1180.6242543772678,
      "latitude_deg": 1.3598337781861239e-05,
      "longitude_deg": 156.57099235943843,
      "height_km": 1184.0251077539397,
      "semi_major_axis_km": 7559.9107388051025,
      "eccentricity": 0.00015205,
      "inclination_deg": 87.9145,
      "raan_deg": 290.476,
      "arg_perigee_deg": 55.5913,
      "mean_anomaly_deg": 304.5364,
      "mean_motion_rev_day": 13.20771717
    },
    {
      "epoch": "2026-03-29T01:57:48.814272Z",
      "apogee_km": 1182.8882830399343,
      "perigee_km": 1180.661133050744,
      "latitude_deg": 3.6723996574412315e-05,
      "longitude_deg": 74.48438710622199,
      "height_km": 1184.0586590073342,
      "semi_major_axis_km": 7559.911708045339,
      "eccentricity": 0.0001473,
      "inclination_deg": 87.9145,
      "raan_deg": 290.4308,
      "arg_perigee_deg": 56.3512,
      "mean_anomaly_deg": 303.7762,
      "mean_motion_rev_day": 13.20771463
    },
    {
      "epoch": "2026-03-30T01:35:58.907328Z",
      "apogee_km": 1182.866127619648,
      "perigee_km": 1180.684639302276,
      "latitude_deg": -4.378845117260599e-05,
      "longitude_deg": 78.77472868016885,
      "height_km": 1184.078796175655,
      "semi_major_axis_km": 7559.912383460962,
      "eccentricity": 0.00014428,
      "inclination_deg": 87.9144,
      "raan_deg": 290.2339,
      "arg_perigee_deg": 56.777,
      "mean_anomaly_deg": 303.3501,
      "mean_motion_rev_day": 13.20771286
    },
    {
      "epoch": "2026-03-30T12:30:31.258368Z",
      "apogee_km": 1182.8535571224456,
      "perigee_km": 1180.6991330173678,
      "latitude_deg": 4.7127242077838005e-05,
      "longitude_deg": -85.3989796521765,
      "height_km": 1184.085280950577,
      "semi_major_axis_km": 7559.913345069906,
      "eccentricity": 0.00014249,
      "inclination_deg": 87.9142,
      "raan_deg": 290.143,
      "arg_perigee_deg": 56.6558,
      "mean_anomaly_deg": 303.4712,
      "mean_motion_rev_day": 13.20771034
    }
  ]
}